OBJECT_NAME,OBJECT_ID,EPOCH,MEAN_MOTION,ECCENTRICITY,INCLINATION,RA_OF_ASC_NODE,ARG_OF_PERICENTER,MEAN_ANOMALY,EPHEMERIS_TYPE,CLASSIFICATION_TYPE,NORAD_CAT_ID,ELEMENT_SET_NO,REV_AT_EPOCH,BSTAR,MEAN_MOTION_DOT,MEAN_MOTION_DDOT
STAR ONE D2,2021-069A,2026-06-08T07:55:02.533152,1.00333647,.0005608,0.0128,334.6169,102.1905,228.6130,0,U,49055,999,1785,0,0,0
EUTELSAT QUANTUM,2021-069B,2026-06-08T17:53:45.938976,1.00272368,.0002314,0.0106,351.1991,82.4141,139.6617,0,U,49056,999,1784,0,.142E-5,0
ZHONGXING-2E,2021-071A,2026-06-08T20:51:26.719200,1.00273651,.0001744,0.0437,242.0519,239.7000,186.4230,0,U,49062,999,1795,0,-.275E-5,0
TJS-7,2021-077A,2026-06-08T19:44:59.106048,1.00271046,.0002427,0.4863,86.1738,335.3161,32.5069,0,U,49115,999,947,0,-.108E-5,0
CHINASAT 9B,2021-080A,2026-06-08T20:42:35.786880,1.00272944,.0001543,0.0334,95.9316,7.7708,205.6174,0,U,49125,999,1756,0,-.296E-5,0
SHIJIAN-21 (SJ-21),2021-094A,2026-06-08T18:41:31.163424,1.00275369,.0049597,5.0921,61.2284,168.0434,76.2756,0,U,49330,999,527,0,-.332E-5,0
SES-17,2021-095A,2026-06-08T13:03:49.565088,1.00269944,.00010243,0.0256,35.0415,45.9352,304.8147,0,U,49332,999,1776,0,-.256E-5,0
SYRACUSE 4A,2021-095B,2026-06-08T18:44:00.008160,1.00269704,.0001474,0.0108,324.0816,112.1682,147.4221,0,U,49333,999,1786,0,.151E-5,0
QZS-1R (MICHIBIKI-1R),2021-096A,2026-06-08T15:41:36.686112,1.00258746,.075431,37.4439,79.7113,271.6148,275.6279,0,U,49336,999,1692,0,-.231E-5,0
ZHONGXING-1D,2021-114A,2026-06-08T19:08:02.647104,1.00273868,.0000218,0.0382,243.0560,315.1085,116.2208,0,U,49505,999,1673,0,-.32E-5,0
STPSAT-6,2021-118A,2026-06-08T09:25:46.362144,1.00273463,.00014023,0.2970,85.5058,256.1428,304.8941,0,U,49817,999,1648,0,-.3E-6,0
EXPRESS AMU-7,2021-123A,2026-06-08T14:09:38.541888,1.00272437,.0000591,0.0147,283.9589,64.1783,266.2549,0,U,50001,999,1645,0,-.226E-5,0
EXPRESS AMU-3,2021-123B,2026-06-08T00:02:29.090112,1.00269595,.00004238,0.0161,304.5274,62.7066,352.7755,0,U,50002,999,693,0,-.306E-5,0
TIANLIAN 2-02,2021-124A,2026-06-08T05:38:20.847264,1.00272697,.0001142,0.7775,86.2654,219.8915,206.0380,0,U,50005,999,1653,0,.2E-7,0
TURKSAT 5B,2021-126A,2026-06-08T17:00:16.648992,1.00272360,.0003642,0.0684,338.3176,18.0549,197.8023,0,U,50212,999,1621,0,.162E-5,0
INMARSAT 6-F1,2021-128A,2026-06-08T17:12:08.906400,1.00272678,.0000124,0.0152,289.1871,257.7540,51.9615,0,U,50319,999,1617,0,-.156E-5,0
SHIYAN-12 01 (SY-12 01),2021-129A,2026-06-08T18:41:18.942144,1.00038140,.0003395,3.6517,80.0230,287.7814,236.8345,0,U,50321,999,1641,0,.48E-6,0
SHIYAN-12 02 (SY-12 02),2021-129B,2026-06-08T17:11:46.442400,1.00491567,.0002714,3.6513,80.0304,55.4827,101.7644,0,U,50322,999,1641,0,-.189E-5,0
TJS-9,2021-135A,2026-06-08T19:10:02.455392,1.00271815,.0004759,0.0569,254.9815,154.0864,272.8408,0,U,50574,999,1634,0,-.282E-5,0
USA 324,2022-006A,2026-06-06T02:06:38.886912,1.00289779,.000284,0.7690,83.2777,165.6787,110.1567,0,U,51280,999,1602,0,-.58E-6,0
GOES 18,2022-021A,2026-06-08T17:51:54.241920,1.00270960,.0000496,0.0313,150.9367,342.8214,254.3470,0,U,51850,999,650,0,.113E-5,0
ZHONGXING-6D,2022-038A,2026-06-08T22:30:31.110912,1.00268958,.0000169,0.0449,94.6952,275.0152,350.3002,0,U,52255,999,1533,0,-.337E-5,0
NILESAT 301,2022-061A,2026-06-08T15:03:36.194400,1.00271880,.0005407,0.0573,29.1411,14.7863,71.9873,0,U,52817,999,1465,0,-.42E-6,0
CMS-02 (GSAT-24),2022-067A,2026-06-08T17:11:53.928960,1.00270894,.0001739,0.0390,139.3037,232.5409,226.2392,0,U,52903,999,1452,0,-.148E-5,0
MEASAT 3D,2022-067B,2026-06-08T17:42:17.312832,1.00271398,.0000816,0.0440,306.7474,106.5444,200.9054,0,U,52904,999,1456,0,-.225E-5,0
SES-22,2022-071A,2026-06-08T17:51:16.803072,1.00273907,.000116,0.0243,288.0742,142.7064,315.1877,0,U,52933,999,743,0,.12E-5,0
WFOV (USA 332),2022-073A,2026-06-08T19:04:55.445952,1.00271509,.0002136,3.6883,78.6344,243.0349,341.0049,0,U,52940,999,1428,0,-.346E-5,0
TIANLIAN 2-03,2022-078A,2026-06-08T18:34:00.712704,1.00272049,.000156,0.6509,76.8671,319.3738,150.0090,0,U,53100,999,1446,0,.88E-6,0
SBIRS GEO-6 (USA 336),2022-092A,2026-06-08T05:05:51.542304,1.00271179,.0002019,3.2738,317.3290,116.8839,37.8722,0,U,53355,999,1414,0,-.279E-5,0
EUTELSAT KONNECT VHTS,2022-110A,2026-06-08T18:31:45.928704,1.00269115,.0002662,0.0628,104.2920,318.8807,114.6442,0,U,53765,999,675,0,.33E-6,0
ZHONGXING-1E,2022-112A,2026-06-08T18:53:59.049600,1.00270429,.0000247,0.0462,107.3321,230.3649,284.3777,0,U,53813,999,1376,0,-.133E-5,0
